0 COSMOS 2251 DEB
1 33759U 93036G   13281.00768619  .00001680  00000-0  55593-3 0  9524
2 33759 074.0273 139.7217 0020965 221.5186 246.1760 14.38593678243738
0 COSMOS 2251 DEB
1 33759U 93036G   13283.03297750  .00002082  00000-0  68677-3 0  9537
2 33759 074.0272 135.9863 0020849 217.0274 295.3284 14.38607499244028
0 COSMOS 2251 DEB
1 33759U 93036G   13287.67503038  .00003848  00000-0  12610-2 0  9558
2 33759 074.0274 127.4259 0020704 207.5880 216.3672 14.38628761244694
0 COSMOS 2251 DEB
1 33759U 93036G   13289.83834326  .00004266  00000-0  13964-2 0  9564
2 33759 074.0270 123.4350 0020606 202.9425 260.5046 14.38646308245002
0 COSMOS 2251 DEB
1 33759U 93036G   13292.06284821  .00003868  00000-0  12666-2 0  9578
2 33759 074.0270 119.3321 0020551 198.4175 261.4527 14.38662418245323
0 COSMOS 2251 DEB
1 33759U 93036G   13294.48288686  .00005522  00000-0  18036-2 0  9586
2 33759 074.0278 114.8675 0020441 193.3807 195.3573 14.38681026245677
